{"type":"FeatureCollection","timeStamp":"2026-05-11T14:13:24Z","links":[{"rel":"self","title":"This document as GeoJSON","type":"application/geo+json","href":"https://api.pdok.nl/cbs/wijken-en-buurten-2024/ogc/v1/collections/buurten/items?buurtcode=BU07726160&f=json&limit=1"},{"rel":"alternate","title":"This document as JSON-FG","type":"application/vnd.ogc.fg+json","href":"https://api.pdok.nl/cbs/wijken-en-buurten-2024/ogc/v1/collections/buurten/items?buurtcode=BU07726160&f=jsonfg&limit=1"},{"rel":"alternate","title":"This document as HTML","type":"text/html","href":"https://api.pdok.nl/cbs/wijken-en-buurten-2024/ogc/v1/collections/buurten/items?buurtcode=BU07726160&f=html&limit=1"}],"features":[{"type":"Feature","properties":{"aantal_bedrijfsvestigingen":1405,"aantal_bedrijven_cultuur_recreatie_overige":155,"aantal_bedrijven_financieel_onroerend_goed":50,"aantal_bedrijven_handel_en_horeca":185,"aantal_bedrijven_landbouw_bosbouw_visserij":0,"aantal_bedrijven_nijverheid_energie":70,"aantal_bedrijven_overheid_onderwijs_en_zorg":130,"aantal_bedrijven_vervoer_informatie_communicatie":245,"aantal_bedrijven_zakelijke_dienstverlening":570,"aantal_huishoudens":2315,"aantal_inkomensontvangers":-99997,"aantal_inwoners":3125,"aantal_jongeren_met_jeugdzorg_in_natura":-99997,"aantal_leerlingen_primair_onderwijs":30,"aantal_leerlingen_voortgezet_onderwijs":20,"aantal_niet_woningvoorraad":394,"aantal_nieuwbouw_niet_woningen":0,"aantal_nieuwbouw_woningen":0,"aantal_personen_met_een_alg_bijstandsuitkering_tot":60,"aantal_personen_met_een_ao_uitkering_totaal":90,"aantal_personen_met_een_aow_uitkering_totaal":50,"aantal_personen_met_een_ww_uitkering_totaal":50,"aantal_personenautos_met_brandstof_benzine":905,"aantal_personenautos_met_overige_brandstof":185,"aantal_studenten_hbo":100,"aantal_studenten_mbo":20,"aantal_studenten_wo":180,"aantal_wmo_clienten":-99997,"aantal_wmo_clienten_per_1000_inwoners":-99997,"afstand_tot_begraafplaats":-99997,"afstand_tot_bos":-99997,"afstand_tot_dagrcreatief_terrein":-99997,"afstand_tot_open_droog_natuur_terrein":-99997,"afstand_tot_open_nat_natuurlijk_terrein":-99997,"afstand_tot_open_natuur_terrein_totaal":-99997,"afstand_tot_openbaar_groen_totaal":-99997,"afstand_tot_park_of_plantsoen":-99997,"afstand_tot_recreatief_binnenwater":-99997,"afstand_tot_semiopenbaar_groen_totaal":-99997,"afstand_tot_sportterrein":-99997,"afstand_tot_verblijfsrecreatief_terrein":-99997,"afstand_tot_volkstuin":-99997,"apotheek_gemiddelde_afstand_in_km":1.1,"attractiepark_gemiddeld_aantal_binnen_10_km":6,"attractiepark_gemiddeld_aantal_binnen_20_km":10,"attractiepark_gemiddeld_aantal_binnen_50_km":38,"attractiepark_gemiddelde_afstand_in_km":0.5,"basisonderwijs_gemiddeld_aantal_binnen_1_km":0.3,"basisonderwijs_gemiddeld_aantal_binnen_3_km":12.5,"basisonderwijs_gemiddeld_aantal_binnen_5_km":37.5,"basisonderwijs_gemiddelde_afstand_in_km":1,"bevolkingsdichtheid_inwoners_per_km2":10476,"bibliotheek_gemiddelde_afstand_in_km":2,"bioscoop_gemiddeld_aantal_binnen_10_km":5.1,"bioscoop_gemiddeld_aantal_binnen_20_km":8,"bioscoop_gemiddeld_aantal_binnen_5_km":4,"bioscoop_gemiddelde_afstand_in_km":0.7,"brandweerkazerne_gemiddelde_afstand_in_km":2.4,"buitenschoolse_opvang_gem_afstand_in_km":1,"buitenschoolse_opvang_gemiddeld_aantal_binnen_1_km":0.3,"buitenschoolse_opvang_gemiddeld_aantal_binnen_3_km":20.7,"buitenschoolse_opvang_gemiddeld_aantal_binnen_5_km":65.2,"buurtcode":"BU07726160","buurtnaam":"Strijp S","cafe_gemiddeld_aantal_binnen_1_km":5.5,"cafe_gemiddeld_aantal_binnen_3_km":80.4,"cafe_gemiddeld_aantal_binnen_5_km":131.9,"cafe_gemiddelde_afstand_in_km":0.4,"cafetaria_gemiddeld_aantal_binnen_1_km":15.3,"cafetaria_gemiddeld_aantal_binnen_3_km":127.9,"cafetaria_gemiddeld_aantal_binnen_5_km":249.7,"cafetaria_gemiddelde_afstand_in_km":0.2,"dekkingspercentage":1,"geboorte_totaal":20,"geboortes_per_1000_inwoners":7,"gem_elektriciteitsverbruik_2_onder_1_kap_woning":-99997,"gem_elektriciteitsverbruik_vrijstaande_woning":-99997,"gemeentecode":"GM0772","gemeentenaam":"Eindhoven","gemiddeld_aantal_musea_binnen_10_km":8,"gemiddeld_aantal_musea_binnen_20_km":17,"gemiddeld_aantal_musea_binnen_5_km":5,"gemiddeld_aardgasverbruik":10,"gemiddeld_elektriciteitsverbruik_appartement":-99997,"gemiddeld_elektriciteitsverbruik_hoekwoning":-99997,"gemiddeld_elektriciteitsverbruik_huurwoning":-99997,"gemiddeld_elektriciteitsverbruik_totaal":-99997,"gemiddeld_elektriciteitsverbruik_tussenwoning":-99997,"gemiddeld_elektriciteitsverbruikkoopwoning":-99997,"gemiddeld_gasverbruik_2_onder_1_kap_woning":-99997,"gemiddeld_gasverbruik_appartement":-99997,"gemiddeld_gasverbruik_hoekwoning":-99997,"gemiddeld_gasverbruik_huurwoning":-99997,"gemiddeld_gasverbruik_totaal":-99997,"gemiddeld_gasverbruik_tussenwoning":-99997,"gemiddeld_gasverbruik_vrijstaande_woning":-99997,"gemiddeld_gasverbruikkoopwoning":-99997,"gemiddeld_gestandaardiseerd_inkomen_van_huishoudens":-99997,"gemiddeld_inkomen_per_inkomensontvanger":-99997,"gemiddeld_inkomen_per_inwoner":-99997,"gemiddelde_afstand_tot_museum":2.2,"gemiddelde_elektriciteitslevering":1550,"gemiddelde_elektriciteitsteruglevering":10,"gemiddelde_huishoudsgrootte":1.4,"gemiddelde_woningwaarde":347,"grote_supermarkt_gemiddeld_aantal_binnen_1_km":1.6,"grote_supermarkt_gemiddeld_aantal_binnen_3_km":26.2,"grote_supermarkt_gemiddeld_aantal_binnen_5_km":60.4,"grote_supermarkt_gemiddelde_afstand_in_km":0.5,"havo_vwo_gemiddeld_aantal_binnen_10_km":14.9,"havo_vwo_gemiddeld_aantal_binnen_3_km":2.3,"havo_vwo_gemiddeld_aantal_binnen_5_km":8.6,"havo_vwo_gemiddelde_afstand_in_km":1.9,"hotel_gemiddeld_aantal_binnen_10_km":34.4,"hotel_gemiddeld_aantal_binnen_20_km":52.1,"hotel_gemiddeld_aantal_binnen_5_km":23.1,"hotel_gemiddelde_afstand_in_km":0.5,"huisartsenpost_gemiddelde_afstand_in_km":2.9,"huisartsenpraktijk_gemiddeld_aantal_binnen_1_km":0.2,"huisartsenpraktijk_gemiddeld_aantal_binnen_3_km":13,"huisartsenpraktijk_gemiddeld_aantal_binnen_5_km":30.6,"huisartsenpraktijk_gemiddelde_afstand_in_km":1.1,"huishoudens_tot_110_percent_van_sociaal_minimum":-99997,"huishoudens_tot_120_percent_van_sociaal_minimum":-99997,"indelingswijziging_wijken_en_buurten":1,"jaar":2024,"jrstatcode":"2024BU07726160","kinderdagverblijf_gemiddeld_aantal_binnen_1_km":0.3,"kinderdagverblijf_gemiddeld_aantal_binnen_3_km":19.1,"kinderdagverblijf_gemiddeld_aantal_binnen_5_km":57.2,"kinderdagverblijf_gemiddelde_afstand_in_km":1,"kunstijsbaan_gemiddelde_afstand_in_km":4.8,"mannen":1785,"mediaan_vermogen_van_particuliere_huish":-99997,"meest_voorkomende_postcode":"5617","motortweewielers_totaal":105,"netto_arbeidsparticipatie":-99997,"omgevingsadressendichtheid":4689,"opleidingsniveau_hoog":-99997,"opleidingsniveau_laag":-99997,"opleidingsniveau_middelbaar":-99997,"oppervlakte_land_in_ha":30,"oppervlakte_totaal_in_ha":30,"oppervlakte_water_in_ha":0,"oprit_hoofdverkeersweg_gemiddelde_afstand_in_km":2.2,"overstapstation_gemiddelde_afstand_in_km":2.5,"perc_bouwjaar_afgelopen_10_jaar":76,"perc_bouwjaar_meer_dan_10_jaar_geleden":24,"perc_eengezinswoning_2onder1kap":0,"perc_eengezinswoning_hoekwoning":0,"perc_eengezinswoning_tussenwoning":0,"perc_eengezinswoning_vrijstaand":0,"perc_geb_buiten_nl_met_herkomstlnd_buiten_europa":13,"perc_geb_buiten_nl_met_herkomstlnd_in_europa_ex_nl":12,"perc_geb_in_nl_met_herkomstland_buiten_europa":9,"perc_geb_in_nl_met_herkomstland_in_europa_ex_nl":3,"perc_huurwoningen_in_bezit_overige_verhuurders":44,"perc_huurwoningen_in_bezit_woningcorporaties":47,"percentage_aardgasvrije_woningen":98,"percentage_aardgaswoningen":0,"percentage_bewoond":-99997,"percentage_bouwjaarklasse_tot_2000":-99997,"percentage_bouwjaarklasse_vanaf_2000":-99997,"percentage_eengezinswoning":0,"percentage_eenpersoonshuishoudens":69,"percentage_geb_in_nl_met_herkomstland_nederland":63,"percentage_gehuwd":9,"percentage_gescheid":4,"percentage_huishoudens_met_hoog_inkomen":-99997,"percentage_huishoudens_met_kinderen":4,"percentage_huishoudens_met_laag_inkomen":-99997,"percentage_huishoudens_met_laagste_inkomen":-99997,"percentage_huishoudens_onder_of_rond_sociaal_minimum":-99997,"percentage_huishoudens_zonder_kinderen":28,"percentage_huurwoningen":91,"percentage_jongeren_met_jeugdzorg_in_natura":-99997,"percentage_koopwoningen":9,"percentage_leegstand_woningen":-99997,"percentage_meergezinswoning":100,"percentage_met_herkomstland_buiten_europa":22,"percentage_met_herkomstland_nederland":63,"percentage_met_herkomstland_uit_europa_excl_nl":16,"percentage_onbewoond":5,"percentage_ongehuwd":86,"percentage_personen_0_tot_15_jaar":2,"percentage_personen_15_tot_25_jaar":14,"percentage_personen_25_tot_45_jaar":74,"percentage_personen_45_tot_65_jaar":8,"percentage_personen_65_jaar_en_ouder":2,"percentage_personen_met_hoog_inkomen":-99997,"percentage_personen_met_laag_inkomen":-99997,"percentage_verweduwd":0,"percentage_werknemers":-99997,"percentage_woningen_met_eigendom_onbekend":-99997,"percentage_woningen_met_stadsverwarming":78,"percentage_woningen_met_zonnestroom":5,"percentage_zelfstandigen":-99997,"personenautos_per_huishouden":0.5,"personenautos_per_km2":3664,"personenautos_totaal":1095,"poppodium_gemiddelde_afstand_in_km":2.9,"restaurant_gemiddeld_aantal_binnen_1_km":16.6,"restaurant_gemiddeld_aantal_binnen_3_km":185.2,"restaurant_gemiddeld_aantal_binnen_5_km":317.7,"restaurant_gemiddelde_afstand_in_km":0.2,"sauna_gemiddelde_afstand_in_km":3.8,"stedelijkheid_adressen_per_km2":1,"sterfte_relatief":1,"sterfte_totaal":0,"theater_gemiddeld_aantal_binnen_10_km":8.8,"theater_gemiddeld_aantal_binnen_20_km":13,"theater_gemiddeld_aantal_binnen_5_km":7,"theater_gemiddelde_afstand_in_km":1.3,"treinstation_gemiddelde_afstand_in_km":1,"vmbo_gemiddeld_aantal_binnen_10_km":18.9,"vmbo_gemiddeld_aantal_binnen_3_km":6.8,"vmbo_gemiddeld_aantal_binnen_5_km":11.5,"vmbo_gemiddelde_afstand_in_km":0.7,"voortgezet_onderwijs_gem_afstand_in_km":0.7,"voortgezet_onderwijs_gemiddeld_aantal_binnen_10_km":24.9,"voortgezet_onderwijs_gemiddeld_aantal_binnen_3_km":7.1,"voortgezet_onderwijs_gemiddeld_aantal_binnen_5_km":16.5,"vrouwen":1340,"warenhuis_gemiddeld_aantal_binnen_10_km":12.8,"warenhuis_gemiddeld_aantal_binnen_20_km":23,"warenhuis_gemiddeld_aantal_binnen_5_km":7.6,"warenhuis_gemiddelde_afstand_in_km":1,"water":"NEE","wijkcode":"WK077261","winkels_ov_dagel_levensm_gem_aantal_binnen_1_km":10.2,"winkels_ov_dagel_levensm_gem_aantal_binnen_3_km":74.8,"winkels_ov_dagel_levensm_gem_aantal_binnen_5_km":150,"winkels_ov_dagelijkse_levensm_gem_afst_in_km":0.4,"woningvoorraad":2285,"ziekenhuis_excl_buitenpoli_gem_aantal_binnen_10_km":4,"ziekenhuis_excl_buitenpoli_gem_aantal_binnen_20_km":5,"ziekenhuis_excl_buitenpoli_gem_aantal_binnen_5_km":2,"ziekenhuis_excl_buitenpolikliniek_gem_afst_in_km":2.9,"ziekenhuis_incl_buitenpoli_gem_aantal_binnen_10_km":5,"ziekenhuis_incl_buitenpoli_gem_aantal_binnen_20_km":7,"ziekenhuis_incl_buitenpoli_gem_aantal_binnen_5_km":2.1,"ziekenhuis_incl_buitenpolikliniek_gem_afst_in_km":2.9,"zonnebank_gemiddelde_afstand_in_km":1.8,"zwembad_gemiddelde_afstand_in_km":4.3},"geometry":{"type":"MultiPolygon","coordinates":[[[[5.458778933004479,51.44891466600276],[5.458975458164186,51.44876758916636],[5.460615996808588,51.44753978284129],[5.4622661573102596,51.446307983104354],[5.46313149372842,51.445669792221615],[5.4634955902137285,51.44534407780945],[5.462968865949944,51.445094147387664],[5.462559769530134,51.44489951594168],[5.4623215097457525,51.44472040155989],[5.462206186030547,51.44455029420147],[5.46197308418299,51.444206450188226],[5.461101969413644,51.44357829972825],[5.460905048303196,51.443518131224984],[5.460681631839904,51.443500064104164],[5.4604503143850485,51.44353099071729],[5.458773992942563,51.44410495828891],[5.4578933549683875,51.444406470602125],[5.453996846219196,51.445729737905594],[5.453536867444171,51.445872175766425],[5.453236245932992,51.44647741939126],[5.452993302128892,51.44673546004179],[5.452211465833879,51.44744346089284],[5.451768893401906,51.44794548472792],[5.453623535776945,51.44856694354797],[5.455631422588862,51.44923169458867],[5.457515122510568,51.44984266557037],[5.458778933004479,51.44891466600276]]]]},"id":"e12362c5-4950-5476-aa8d-cec0309615e2"}],"numberReturned":1}
